O3B MPOWER F1           
1 54755U 22174A   23255.48935962 -.00000029  00000+0  00000+0 0  9995
2 54755   0.0456  16.1797 0004754 169.5939 163.9309  5.00118547 14890
